DELTA 2 R/B             
1 25876U 99041E   26061.92882372  .00001709  00000+0  31260-3 0  9998
2 25876  51.7651 328.2833 0502354 328.4737  28.6972 14.11812753362072
HELIOS 1B               
1 25977U 99064A   26061.71885212  .00002212  00000+0  24946-3 0  9991
2 25977  98.1705 323.7571 0002509  84.3567 275.7935 14.87662698684226
TERRA                   
1 25994U 99068A   26061.93193880  .00000531  00000+0  11722-3 0  9991
2 25994  97.9608 115.6244 0002242 168.2978 236.4379 14.61006090394090
SL-16 R/B               
1 26070U 00006B   26061.59408206  .00000261  00000+0  15675-3 0  9995
2 26070  71.0013 112.7581 0017251 199.9346 160.1105 14.15823865347552
TITAN 4B R/B            
1 26474U 00047B   26061.93806196  .00004810  00000+0  30277-3 0  9995
2 26474  67.9882  59.4944 0037926  43.4420 316.9706 15.09482652391898
ENVISAT                 
1 27386U 02009A   26061.85866175  .00000157  00000+0  64556-4 0  9990
2 27386  98.3717  15.6191 0001346  84.9534 290.4970 14.39033896258195
IDEFIX & ARIANE 42P R/B 
1 27422U 02021B   26061.78353346  .00000343  00000+0  14692-3 0  9990
2 27422  98.5864   0.4726 0011181 203.1585 156.9095 14.31020279243030
AQUA                    
1 27424U 02022A   26061.97342907  .00001252  00000+0  25982-3 0  9999
2 27424  98.4163  29.2166 0000682  57.1375 343.6162 14.61956930267758
CZ-4B R/B               
1 27432U 02024C   26061.79821735  .00000053  00000+0  50114-4 0  9995
2 27432  98.8854 115.2392 0050790  43.5863  74.0923 14.14546123228261
MIDORI II (ADEOS-II)    
1 27597U 02056A   26061.87322174  .00000346  00000+0  15385-3 0  9999
2 27597  98.7758  20.3043 0001827  52.5235 307.6112 14.29278656209324
H-2A R/B                
1 27601U 02056E   26061.86697096  .00000306  00000+0  12189-3 0  9997
2 27601  98.3190  22.4928 0070073 180.9596 233.8258 14.33755244213139
CZ-4B R/B               
1 28059U 03049C   26061.91932964  .00000498  00000+0  12597-3 0  9995
2 28059  98.6871  56.5588 0047042 252.0119 107.5946 14.55012218185611
CZ-2C R/B               
1 28222U 04012C   26061.69932581  .00058146  00000+0  62271-3 0  9995
2 28222  97.7249 126.3342 0013394 338.0425  22.0257 15.63563856203182
SL-16 R/B               
1 28353U 04021B   26061.95146318 -.00000103  00000+0 -28718-4 0  9995
2 28353  70.9992 246.6340 0003693  23.2167 336.9122 14.14599719121882
CZ-4B R/B               
1 28415U 04035C   26061.64487789  .00010090  00000+0  35643-3 0  9993
2 28415  97.3510  95.9723 0031865 357.0727   3.0321 15.28910749178838
CZ-2C R/B               
1 28480U 04046B   26061.75414836  .00000156  00000+0  72804-4 0  9995
2 28480  98.1988 337.1695 0139467 174.9003 185.3638 14.26989516107514
ARIANE 5 R/B            
1 28499U 04049H   26061.89581475  .00000943  00000+0  11025-3 0  9998
2 28499  98.2615 230.0990 0084431  13.9340 346.4176 14.85250512144786
